{
    "links": {
        "self": "http://www.neowsapp.com/rest/v1/neo/3842762?api_key=iIulBulltgU6a56xZRHN4H3l9WmuAYTsLGpBGhQ2"
    },
    "id": "3842762",
    "neo_reference_id": "3842762",
    "name": "(2019 LM1)",
    "designation": "2019 LM1",
    "nasa_jpl_url": "http://ssd.jpl.nasa.gov/sbdb.cgi?sstr=3842762",
    "absolute_magnitude_h": 25.7,
    "estimated_diameter": {
        "kilometers": {
            "estimated_diameter_min": 0.0192555078,
            "estimated_diameter_max": 0.0430566244
        },
        "meters": {
            "estimated_diameter_min": 19.2555078188,
            "estimated_diameter_max": 43.0566244241
        },
        "miles": {
            "estimated_diameter_min": 0.0119648141,
            "estimated_diameter_max": 0.0267541378
        },
        "feet": {
            "estimated_diameter_min": 63.1742402722,
            "estimated_diameter_max": 141.2618956756
        }
    },
    "is_potentially_hazardous_asteroid": false,
    "close_approach_data": [
        {
            "close_approach_date": "1954-12-19",
            "close_approach_date_full": "1954-Dec-19 02:59",
            "epoch_date_close_approach": -474498060000,
            "relative_velocity": {
                "kilometers_per_second": "11.079714948",
                "kilometers_per_hour": "39886.9738127982",
                "miles_per_hour": "24784.2143671801"
            },
            "miss_distance": {
                "astronomical": "0.0606828126",
                "lunar": "23.6056141014",
                "kilometers": "9078019.510569162",
                "miles": "5640819.7555799556"
            },
            "orbiting_body": "Mars"
        },
        {
            "close_approach_date": "2013-09-18",
            "close_approach_date_full": "2013-Sep-18 11:07",
            "epoch_date_close_approach": 1379502420000,
            "relative_velocity": {
                "kilometers_per_second": "19.1579466223",
                "kilometers_per_hour": "68968.6078402156",
                "miles_per_hour": "42854.4107993828"
            },
            "miss_distance": {
                "astronomical": "0.3508529929",
                "lunar": "136.4818142381",
                "kilometers": "52486860.420965123",
                "miles": "32613822.7425317774"
            },
            "orbiting_body": "Earth"
        },
        {
            "close_approach_date": "2016-08-26",
            "close_approach_date_full": "2016-Aug-26 21:50",
            "epoch_date_close_approach": 1472248200000,
            "relative_velocity": {
                "kilometers_per_second": "10.5143395349",
                "kilometers_per_hour": "37851.6223256735",
                "miles_per_hour": "23519.5261056386"
            },
            "miss_distance": {
                "astronomical": "0.0837583898",
                "lunar": "32.5820136322",
                "kilometers": "12530076.708709726",
                "miles": "7785828.6331211788"
            },
            "orbiting_body": "Earth"
        },
        {
            "close_approach_date": "2019-06-23",
            "close_approach_date_full": "2019-Jun-23 01:24",
            "epoch_date_close_approach": 1561253040000,
            "relative_velocity": {
                "kilometers_per_second": "8.7039103829",
                "kilometers_per_hour": "31334.0773784757",
                "miles_per_hour": "19469.7771355312"
            },
            "miss_distance": {
                "astronomical": "0.0250081103",
                "lunar": "9.7281549067",
                "kilometers": "3741160.033605061",
                "miles": "2324649.0494734018"
            },
            "orbiting_body": "Earth"
        },
        {
            "close_approach_date": "2022-05-24",
            "close_approach_date_full": "2022-May-24 13:32",
            "epoch_date_close_approach": 1653399120000,
            "relative_velocity": {
                "kilometers_per_second": "17.1227892433",
                "kilometers_per_hour": "61642.0412757486",
                "miles_per_hour": "38301.9672582561"
            },
            "miss_distance": {
                "astronomical": "0.2824172589",
                "lunar": "109.8603137121",
                "kilometers": "42249020.382678543",
                "miles": "26252323.9293601734"
            },
            "orbiting_body": "Earth"
        }
    ],
    "orbital_data": {
        "orbit_id": "3",
        "orbit_determination_date": "2019-06-22 05:55:38",
        "first_observation_date": "2019-05-26",
        "last_observation_date": "2019-06-21",
        "data_arc_in_days": 26,
        "observations_used": 20,
        "orbit_uncertainty": "7",
        "minimum_orbit_intersection": ".0245562",
        "jupiter_tisserand_invariant": "3.602",
        "epoch_osculation": "2459000.5",
        "eccentricity": ".5196767324030557",
        "semi_major_axis": "2.057648242777059",
        "inclination": "2.439765768970946",
        "ascending_node_longitude": "239.0162234355833",
        "orbital_period": "1078.090272223147",
        "perihelion_distance": ".9883363275357877",
        "perihelion_argument": "58.81854719123869",
        "aphelion_distance": "3.12696015801833",
        "perihelion_time": "2458679.546744288525",
        "mean_anomaly": "107.1739306374295",
        "mean_motion": ".3339237995883577",
        "equinox": "J2000",
        "orbit_class": {
            "orbit_class_type": "APO",
            "orbit_class_description": "Near-Earth asteroid orbits which cross the Earth’s orbit similar to that of 1862 Apollo",
            "orbit_class_range": "a (semi-major axis) > 1.0 AU; q (perihelion) < 1.017 AU"
        }
    },
    "is_sentry_object": false
}